{
  "provider": "metar",
  "timestamp": "2026-01-20T05:50:35.007041",
  "api_success": true,
  "data": {
    "raw": "KMOD 201253Z AUTO 18003KT 1/4SM FG VV002 06/05 A3015 RMK AO2 SLP208 T00560050",
    "station": "KMOD",
    "observation_time": "2026/01/20 12:53",
    "temp_c": 6,
    "dewpoint_c": 5,
    "wind_speed_kt": 3,
    "wind_dir": 180,
    "visibility_sm": 4.0,
    "sky_condition": "FOG - Vertical Visibility (Fog/Low Clouds)"
  }
}