{
  "provider": "metar",
  "timestamp": "2026-02-04T05:30:19.162123",
  "api_success": true,
  "data": {
    "raw": "KMOD 041253Z AUTO 11004KT M1/4SM FG VV001 06/06 A3027 RMK AO2 SLP248 T00610056",
    "station": "KMOD",
    "observation_time": "2026/02/04 12:53",
    "temp_c": 6,
    "dewpoint_c": 6,
    "wind_speed_kt": 4,
    "wind_dir": 110,
    "visibility_sm": 4.0,
    "sky_condition": "FOG - Vertical Visibility (Fog/Low Clouds)"
  }
}