{
  "provider": "metar",
  "timestamp": "2026-01-15T11:02:08.303744",
  "api_success": true,
  "data": {
    "raw": "KMOD 151853Z 26003KT 1/2SM FG OVC002 07/07 A3016 RMK AO2 SLP214 T00720067",
    "station": "KMOD",
    "observation_time": "2026/01/15 18:53",
    "temp_c": 7,
    "dewpoint_c": 7,
    "wind_speed_kt": 3,
    "wind_dir": 260,
    "visibility_sm": 2.0,
    "sky_condition": "FOG - Overcast"
  }
}