{
  "provider": "metar",
  "timestamp": "2026-01-22T05:26:45.961894",
  "api_success": true,
  "data": {
    "raw": "KMOD 221304Z 00000KT 4SM BR FEW003 BKN120 07/06 A3001 RMK AO2 T00670061",
    "station": "KMOD",
    "observation_time": "2026/01/22 13:04",
    "temp_c": 7,
    "dewpoint_c": 6,
    "wind_speed_kt": 0,
    "wind_dir": 0,
    "visibility_sm": 4.0,
    "sky_condition": "MIST - Few Clouds"
  }
}