{
  "provider": "metar",
  "timestamp": "2026-01-15T20:30:09.038367",
  "api_success": true,
  "data": {
    "raw": "KMOD 160413Z 00000KT 2SM BR CLR 08/07 A3005 RMK AO2 T00780072",
    "station": "KMOD",
    "observation_time": "2026/01/16 04:13",
    "temp_c": 8,
    "dewpoint_c": 7,
    "wind_speed_kt": 0,
    "wind_dir": 0,
    "visibility_sm": 2.0,
    "sky_condition": "MIST - Clear"
  }
}