{
  "provider": "metar",
  "timestamp": "2026-02-06T05:26:32.224094",
  "api_success": true,
  "data": {
    "raw": "KMOD 061253Z 00000KT 4SM BR CLR 12/09 A3006 RMK AO2 SLP178 T01170094",
    "station": "KMOD",
    "observation_time": "2026/02/06 12:53",
    "temp_c": 12,
    "dewpoint_c": 9,
    "wind_speed_kt": 0,
    "wind_dir": 0,
    "visibility_sm": 4.0,
    "sky_condition": "MIST - Clear"
  }
}