{
  "provider": "metar",
  "timestamp": "2026-02-06T08:57:45.420316",
  "api_success": true,
  "data": {
    "raw": "KMOD 061653Z 10005KT 1 1/4SM BR CLR 11/10 A3011 RMK AO2 SLP194 T01110100",
    "station": "KMOD",
    "observation_time": "2026/02/06 16:53",
    "temp_c": 11,
    "dewpoint_c": 10,
    "wind_speed_kt": 5,
    "wind_dir": 100,
    "visibility_sm": 4.0,
    "sky_condition": "MIST - Clear"
  }
}