{
  "provider": "metar",
  "timestamp": "2026-01-20T08:05:59.109663",
  "api_success": true,
  "data": {
    "raw": "KMOD 201553Z 30003KT 1/4SM FG OVC002 06/06 A3017 RMK AO2 SLP215 T00560056",
    "station": "KMOD",
    "observation_time": "2026/01/20 15:53",
    "temp_c": 6,
    "dewpoint_c": 6,
    "wind_speed_kt": 3,
    "wind_dir": 300,
    "visibility_sm": 4.0,
    "sky_condition": "FOG - Overcast"
  }
}