{
  "provider": "metar",
  "timestamp": "2026-01-16T13:50:36.401271",
  "api_success": true,
  "data": {
    "raw": "KMOD 162111Z 10005KT 1 1/4SM BR SCT004 10/09 A3009 RMK AO2 T01000089",
    "station": "KMOD",
    "observation_time": "2026/01/16 21:11",
    "temp_c": 10,
    "dewpoint_c": 9,
    "wind_speed_kt": 5,
    "wind_dir": 100,
    "visibility_sm": 4.0,
    "sky_condition": "MIST - Scattered"
  }
}