{
  "provider": "metar",
  "timestamp": "2026-01-15T13:56:25.956411",
  "api_success": true,
  "data": {
    "raw": "KMOD 152153Z 30005KT 4SM HZ CLR 14/09 A3008 RMK AO2 SLP187 T01440094",
    "station": "KMOD",
    "observation_time": "2026/01/15 21:53",
    "temp_c": 14,
    "dewpoint_c": 9,
    "wind_speed_kt": 5,
    "wind_dir": 300,
    "visibility_sm": 4.0,
    "sky_condition": "HAZE - Clear"
  }
}