{
  "provider": "metar",
  "timestamp": "2026-01-20T07:40:42.735335",
  "api_success": true,
  "data": {
    "raw": "KMOD 201511Z 33003KT 1/2SM FG VV002 06/05 A3016 RMK AO2 T00560050",
    "station": "KMOD",
    "observation_time": "2026/01/20 15:11",
    "temp_c": 6,
    "dewpoint_c": 5,
    "wind_speed_kt": 3,
    "wind_dir": 330,
    "visibility_sm": 2.0,
    "sky_condition": "FOG - Vertical Visibility (Fog/Low Clouds)"
  }
}