{
  "provider": "metar",
  "timestamp": "2026-01-20T07:11:45.435035",
  "api_success": true,
  "data": {
    "raw": "KMOD 201453Z AUTO 29003KT 1/4SM FG VV002 06/06 A3016 RMK AO2 SLP212 T00560056 51008",
    "station": "KMOD",
    "observation_time": "2026/01/20 14:53",
    "temp_c": 6,
    "dewpoint_c": 6,
    "wind_speed_kt": 3,
    "wind_dir": 290,
    "visibility_sm": 4.0,
    "sky_condition": "FOG - Vertical Visibility (Fog/Low Clouds)"
  }
}