{
  "provider": "metar",
  "timestamp": "2026-01-15T21:49:19.167082",
  "api_success": true,
  "data": {
    "raw": "KMOD 160542Z 13005KT 1/2SM FG VV006 07/06 A3005 RMK AO2 T00670061",
    "station": "KMOD",
    "observation_time": "2026/01/16 05:42",
    "temp_c": 7,
    "dewpoint_c": 6,
    "wind_speed_kt": 5,
    "wind_dir": 130,
    "visibility_sm": 2.0,
    "sky_condition": "FOG - Vertical Visibility (Fog/Low Clouds)"
  }
}