{
  "provider": "metar",
  "timestamp": "2026-02-05T12:19:09.230880",
  "api_success": true,
  "data": {
    "raw": "KMOD 052001Z 00000KT 3SM BR CLR 12/11 A3009 RMK AO2 T01220111",
    "station": "KMOD",
    "observation_time": "2026/02/05 20:01",
    "temp_c": 12,
    "dewpoint_c": 11,
    "wind_speed_kt": 0,
    "wind_dir": 0,
    "visibility_sm": 3.0,
    "sky_condition": "MIST - Clear"
  }
}