{
  "provider": "metar",
  "timestamp": "2026-01-16T07:50:00.253344",
  "api_success": true,
  "data": {
    "raw": "KMOD 161536Z 12004KT M1/4SM FG VV001 04/03 A3010 RMK AO2 T00390033",
    "station": "KMOD",
    "observation_time": "2026/01/16 15:36",
    "temp_c": 4,
    "dewpoint_c": 3,
    "wind_speed_kt": 4,
    "wind_dir": 120,
    "visibility_sm": 4.0,
    "sky_condition": "FOG - Vertical Visibility (Fog/Low Clouds)"
  }
}