{
  "provider": "metar",
  "timestamp": "2026-01-15T13:46:30.445965",
  "api_success": true,
  "data": {
    "raw": "KMOD 152053Z 29004KT 4SM BR CLR 11/08 A3011 RMK AO2 SLP195 T01060083 58019",
    "station": "KMOD",
    "observation_time": "2026/01/15 20:53",
    "temp_c": 11,
    "dewpoint_c": 8,
    "wind_speed_kt": 4,
    "wind_dir": 290,
    "visibility_sm": 4.0,
    "sky_condition": "MIST - Clear"
  }
}