{
  "provider": "metar",
  "timestamp": "2026-02-03T05:30:35.088488",
  "api_success": true,
  "data": {
    "raw": "KMOD 031253Z AUTO 12003KT M1/4SM FG VV001 07/07 A3028 RMK AO2 SLP254 T00670067",
    "station": "KMOD",
    "observation_time": "2026/02/03 12:53",
    "temp_c": 7,
    "dewpoint_c": 7,
    "wind_speed_kt": 3,
    "wind_dir": 120,
    "visibility_sm": 4.0,
    "sky_condition": "FOG - Vertical Visibility (Fog/Low Clouds)"
  }
}