{
  "provider": "metar",
  "timestamp": "2026-01-26T05:35:54.210448",
  "api_success": true,
  "data": {
    "raw": "KMOD 261303Z AUTO 26003KT 2 1/2SM BR CLR 05/04 A3028 RMK AO2 T00500039 $",
    "station": "KMOD",
    "observation_time": "2026/01/26 13:03",
    "temp_c": 5,
    "dewpoint_c": 4,
    "wind_speed_kt": 3,
    "wind_dir": 260,
    "visibility_sm": 2.0,
    "sky_condition": "MIST - Clear"
  }
}