{
  "provider": "metar",
  "timestamp": "2026-01-16T06:25:45.666117",
  "api_success": true,
  "data": {
    "raw": "KMOD 161353Z 14003KT M1/4SM FG VV001 03/03 A3009 RMK AO2 SLP189 T00330033",
    "station": "KMOD",
    "observation_time": "2026/01/16 13:53",
    "temp_c": 3,
    "dewpoint_c": 3,
    "wind_speed_kt": 3,
    "wind_dir": 140,
    "visibility_sm": 4.0,
    "sky_condition": "FOG - Vertical Visibility (Fog/Low Clouds)"
  }
}