{
  "provider": "metar",
  "timestamp": "2026-01-16T07:25:28.520712",
  "api_success": true,
  "data": {
    "raw": "KMOD 161453Z 07003KT M1/4SM FG VV001 04/04 A3011 RMK AO2 SLP196 T00390039 51012",
    "station": "KMOD",
    "observation_time": "2026/01/16 14:53",
    "temp_c": 4,
    "dewpoint_c": 4,
    "wind_speed_kt": 3,
    "wind_dir": 70,
    "visibility_sm": 4.0,
    "sky_condition": "FOG - Vertical Visibility (Fog/Low Clouds)"
  }
}