{
  "provider": "metar",
  "timestamp": "2026-01-16T09:08:17.804114",
  "api_success": true,
  "data": {
    "raw": "KMOD 161653Z 11003KT M1/4SM FG VV001 05/05 A3012 RMK AO2 SLP200 T00500050",
    "station": "KMOD",
    "observation_time": "2026/01/16 16:53",
    "temp_c": 5,
    "dewpoint_c": 5,
    "wind_speed_kt": 3,
    "wind_dir": 110,
    "visibility_sm": 4.0,
    "sky_condition": "FOG - Vertical Visibility (Fog/Low Clouds)"
  }
}